IRIDIUM 150             
1 43257U 18030J   24055.57698387  .00000012  00000+0 -26335-5 0  9999
2 43257  86.3933 283.0276 0001980  96.7740 263.3681 14.34217447309248
IRIDIUM 143             
1 43258U 18030K   24055.55795599  .00000224  00000+0  72874-4 0  9993
2 43258  86.3938 283.0953 0002367  94.2606 265.8861 14.34217369309172
IRIDIUM 161             
1 43478U 18047C   24055.55133859  .00000327  00000+0  91117-4 0  9995
2 43478  86.4433  81.0636 0002224  91.5498 268.5957 14.43291152303455
IRIDIUM 152             
1 43479U 18047D   24055.60044045  .00000215  00000+0  69588-4 0  9993
2 43479  86.3905  80.9023 0002344  92.3182 267.8282 14.34217251301571
IRIDIUM 162             
1 43482U 18047G   24055.54502815  .00000194  00000+0  51611-4 0  9998
2 43482  86.4432  80.9677 0002180  89.1189 271.0262 14.43269645303442
IRIDIUM 160             
1 43569U 18061A   24055.48919575  .00000048  00000+0  99157-5 0  9994
2 43569  86.3940  49.3538 0002288  78.2842 281.8611 14.34217668292442
